{
  "norad_id": 55345,
  "name": "STARLINK-5653",
  "history": [
    {
      "epoch": "2026-03-27T22:57:49.575456Z",
      "apogee_km": 486.3825517023806,
      "perigee_km": 484.7187938105053,
      "latitude_deg": 3.8856501574213344e-05,
      "longitude_deg": 15.96729793432305,
      "height_km": 485.22546794560094,
      "semi_major_axis_km": 6863.687672756443,
      "eccentricity": 0.0001212,
      "inclination_deg": 43.0005,
      "raan_deg": 185.808,
      "arg_perigee_deg": 277.0353,
      "mean_anomaly_deg": 83.0361,
      "mean_motion_rev_day": 15.26744951
    }
  ]
}